{
  "type": "FeatureCollection",
  "features": [
    {
      "type": "Feature",
      "properties": {
        "norad_id": 38091,
        "name": "BEIDOU-2 G5 (C05)",
        "group": "gnss",
        "lat": 1.509511657059326,
        "lon": 99.41744192403054,
        "alt_km": 35835.50474831341,
        "timestamp": "2025-12-08T21:31:04.910337+00:00",
        "meta_object_name": "BEIDOU-2 G5 (C05)",
        "meta_object_id": "2012-008A",
        "meta_epoch": "2025-12-08T13:53:05.631360",
        "meta_mean_motion": 1.00274194,
        "meta_eccentricity": 0.00125349,
        "meta_inclination": 3.0988,
        "meta_ra_of_asc_node": 70.7215,
        "meta_arg_of_pericenter": 226.9655,
        "meta_mean_anomaly": 46.9097,
        "meta_ephemeris_type": 0,
        "meta_classification_type": "U",
        "meta_norad_cat_id": 38091,
        "meta_element_set_no": 999,
        "meta_rev_at_epoch": 5045,
        "meta_bstar": 0,
        "meta_mean_motion_dot": 5.8e-07,
        "meta_mean_motion_ddot": 0,
        "tle_line1": "1 38091U 12008A   25342.57853740  .00000058  00000+0  00000+0 0  9998",
        "tle_line2": "2 38091   3.0988  70.7215 0012534 226.9655  46.9097  1.00274194 50450"
      },
      "geometry": {
        "type": "Point",
        "coordinates": [
          99.41744192403054,
          1.509511657059326
        ]
      }
    },
    {
      "type": "Feature",
      "properties": {
        "norad_id": 38250,
        "name": "BEIDOU-2 M3 (C11)",
        "group": "gnss",
        "lat": -31.78754807437703,
        "lon": 156.05387995218248,
        "alt_km": 21492.796418958686,
        "timestamp": "2025-12-08T21:31:04.910352+00:00",
        "meta_object_name": "BEIDOU-2 M3 (C11)",
        "meta_object_id": "2012-018A",
        "meta_epoch": "2025-12-08T13:38:39.272640",
        "meta_mean_motion": 1.86229758,
        "meta_eccentricity": 0.00243707,
        "meta_inclination": 55.9237,
        "meta_ra_of_asc_node": 311.2978,
        "meta_arg_of_pericenter": 274.148,
        "meta_mean_anomaly": 85.5607,
        "meta_ephemeris_type": 0,
        "meta_classification_type": "U",
        "meta_norad_cat_id": 38250,
        "meta_element_set_no": 999,
        "meta_rev_at_epoch": 9239,
        "meta_bstar": 0,
        "meta_mean_motion_dot": -7.3e-07,
        "meta_mean_motion_ddot": 0,
        "tle_line1": "1 38250U 12018A   25342.56851010 -.00000073  00000+0  00000+0 0  9991",
        "tle_line2": "2 38250  55.9237 311.2978 0024370 274.1480  85.5607  1.86229758 92396"
      },
      "geometry": {
        "type": "Point",
        "coordinates": [
          156.05387995218248,
          -31.78754807437703
        ]
      }
    },
    {
      "type": "Feature",
      "properties": {
        "norad_id": 38251,
        "name": "BEIDOU-2 M4 (C12)",
        "group": "gnss",
        "lat": -55.54478545027118,
        "lon": -147.78572318344345,
        "alt_km": 21491.764223409322,
        "timestamp": "2025-12-08T21:31:04.910367+00:00",
        "meta_object_name": "BEIDOU-2 M4 (C12)",
        "meta_object_id": "2012-018B",
        "meta_epoch": "2025-12-08T12:00:48.229344",
        "meta_mean_motion": 1.86229448,
        "meta_eccentricity": 0.00155158,
        "meta_inclination": 55.8253,
        "meta_ra_of_asc_node": 310.5294,
        "meta_arg_of_pericenter": 277.5058,
        "meta_mean_anomaly": 82.3051,
        "meta_ephemeris_type": 0,
        "meta_classification_type": "U",
        "meta_norad_cat_id": 38251,
        "meta_element_set_no": 999,
        "meta_rev_at_epoch": 9239,
        "meta_bstar": 0,
        "meta_mean_motion_dot": -7.3e-07,
        "meta_mean_motion_ddot": 0,
        "tle_line1": "1 38251U 12018B   25342.50055821 -.00000073  00000+0  00000+0 0  9992",
        "tle_line2": "2 38251  55.8253 310.5294 0015515 277.5058  82.3051  1.86229448 92390"
      },
      "geometry": {
        "type": "Point",
        "coordinates": [
          -147.78572318344345,
          -55.54478545027118
        ]
      }
    },
    {
      "type": "Feature",
      "properties": {
        "norad_id": 38652,
        "name": "SES-5 (EGNOS/PRN 136)",
        "group": "gnss",
        "lat": 0.07513146425724403,
        "lon": 45.65630319166066,
        "alt_km": 35794.38123338328,
        "timestamp": "2025-12-08T21:31:04.910380+00:00",
        "meta_object_name": "SES-5 (EGNOS/PRN 136)",
        "meta_object_id": "2012-036A",
        "meta_epoch": "2025-12-08T06:46:44.289984",
        "meta_mean_motion": 1.00271639,
        "meta_eccentricity": 0.00022393,
        "meta_inclination": 0.0591,
        "meta_ra_of_asc_node": 304.1918,
        "meta_arg_of_pericenter": 310.2354,
        "meta_mean_anomaly": 289.5298,
        "meta_ephemeris_type": 0,
        "meta_classification_type": "U",
        "meta_norad_cat_id": 38652,
        "meta_element_set_no": 999,
        "meta_rev_at_epoch": 4255,
        "meta_bstar": 0,
        "meta_mean_motion_dot": 3.6e-07,
        "meta_mean_motion_ddot": 0,
        "tle_line1": "1 38652U 12036A   25342.28245706  .00000036  00000+0  00000+0 0  9993",
        "tle_line2": "2 38652   0.0591 304.1918 0002239 310.2354 289.5298  1.00271639 42559"
      },
      "geometry": {
        "type": "Point",
        "coordinates": [
          45.65630319166066,
          0.07513146425724403
        ]
      }
    },
    {
      "type": "Feature",
      "properties": {
        "norad_id": 38775,
        "name": "BEIDOU-2 M6 (C14)",
        "group": "gnss",
        "lat": 55.249373443660055,
        "lon": 175.90186879482928,
        "alt_km": 21534.200026284187,
        "timestamp": "2025-12-08T21:31:04.910392+00:00",
        "meta_object_name": "BEIDOU-2 M6 (C14)",
        "meta_object_id": "2012-050B",
        "meta_epoch": "2025-12-08T05:04:33.479040",
        "meta_mean_motion": 1.86230723,
        "meta_eccentricity": 0.00110356,
        "meta_inclination": 56.3747,
        "meta_ra_of_asc_node": 69.2178,
        "meta_arg_of_pericenter": 345.3738,
        "meta_mean_anomaly": 14.6151,
        "meta_ephemeris_type": 0,
        "meta_classification_type": "U",
        "meta_norad_cat_id": 38775,
        "meta_element_set_no": 999,
        "meta_rev_at_epoch": 8975,
        "meta_bstar": 0,
        "meta_mean_motion_dot": -4.4e-07,
        "meta_mean_motion_ddot": 0,
        "tle_line1": "1 38775U 12050B   25342.21149860 -.00000044  00000+0  00000+0 0  9992",
        "tle_line2": "2 38775  56.3747  69.2178 0011035 345.3738  14.6151  1.86230723 89759"
      },
      "geometry": {
        "type": "Point",
        "coordinates": [
          175.90186879482928,
          55.249373443660055
        ]
      }
    },
    {
      "type": "Feature",
      "properties": {
        "norad_id": 38779,
        "name": "GSAT-10 (GAGAN/PRN 128)",
        "group": "gnss",
        "lat": -0.00024124883308968153,
        "lon": 123.64567016202972,
        "alt_km": 35776.49208331113,
        "timestamp": "2025-12-08T21:31:04.910404+00:00",
        "meta_object_name": "GSAT-10 (GAGAN/PRN 128)",
        "meta_object_id": "2012-051B",
        "meta_epoch": "2025-12-08T13:59:57.473376",
        "meta_mean_motion": 1.0027332,
        "meta_eccentricity": 0.00021817,
        "meta_inclination": 0.018,
        "meta_ra_of_asc_node": 264.5114,
        "meta_arg_of_pericenter": 222.6941,
        "meta_mean_anomaly": 243.3543,
        "meta_ephemeris_type": 0,
        "meta_classification_type": "U",
        "meta_norad_cat_id": 38779,
        "meta_element_set_no": 999,
        "meta_rev_at_epoch": 4818,
        "meta_bstar": 0,
        "meta_mean_motion_dot": -1.63e-06,
        "meta_mean_motion_ddot": 0,
        "tle_line1": "1 38779U 12051B   25342.58330409 -.00000163  00000+0  00000+0 0  9990",
        "tle_line2": "2 38779   0.0180 264.5114 0002181 222.6941 243.3543  1.00273320 48189"
      },
      "geometry": {
        "type": "Point",
        "coordinates": [
          123.64567016202972,
          -0.00024124883308968153
        ]
      }
    },
    {
      "type": "Feature",
      "properties": {
        "norad_id": 38833,
        "name": "GPS BIIF-3  (PRN 24)",
        "group": "gnss",
        "lat": 19.948608860549843,
        "lon": 166.94721996556848,
        "alt_km": 19813.26272970331,
        "timestamp": "2025-12-08T21:31:04.910416+00:00",
        "meta_object_name": "GPS BIIF-3  (PRN 24)",
        "meta_object_id": "2012-053A",
        "meta_epoch": "2025-12-07T20:46:13.738656",
        "meta_mean_motion": 2.00564906,
        "meta_eccentricity": 0.01756617,
        "meta_inclination": 53.5567,
        "meta_ra_of_asc_node": 151.4383,
        "meta_arg_of_pericenter": 63.924,
        "meta_mean_anomaly": 297.8703,
        "meta_ephemeris_type": 0,
        "meta_classification_type": "U",
        "meta_norad_cat_id": 38833,
        "meta_element_set_no": 999,
        "meta_rev_at_epoch": 9560,
        "meta_bstar": 0,
        "meta_mean_motion_dot": 5.3e-07,
        "meta_mean_motion_ddot": 0,
        "tle_line1": "1 38833U 12053A   25341.86543679  .00000053  00000+0  00000+0 0  9995",
        "tle_line2": "2 38833  53.5567 151.4383 0175661  63.9240 297.8703  2.00564906 95601"
      },
      "geometry": {
        "type": "Point",
        "coordinates": [
          166.94721996556848,
          19.948608860549843
        ]
      }
    }
  ]
}